HULIANWANG DIGUI-134    
1 67242U 25311G   26014.91974490 -.00000041  00000+0  84743-4 0  9994
2 67242  50.0053 316.3033 0006696 330.2431  29.8086 13.90195421  2783
HULIANWANG DIGUI-135    
1 67243U 25311H   26014.99371443 -.00000050  00000+0  77464-4 0  9994
2 67243  50.0039 316.0244 0007914 332.9474  27.1011 13.90184409  2793
HULIANWANG DIGUI-136    
1 67244U 25311J   26014.98939555 -.00000046  00000+0  80577-4 0  9992
2 67244  50.0111 316.0202 0006836 339.2809  20.7811 13.90230289  2798
CZ-8A R/B               
1 67245U 25311K   26014.97135572 -.00000206  00000+0 -26110-4 0  9991
2 67245  50.0054 313.2372 0088956 151.0807 209.5072 14.12608819  2837
FENGYUN 4C              
1 67246U 25312A   26014.40070308 -.00000303  00000+0  00000+0 0  9998
2 67246   0.0764 241.4707 0002525  48.3090 101.4159  1.00270870   238
CZ-3B R/B               
1 67247U 25312B   26013.30041885  .00172942 -31868-6  51307-3 0  9997
2 67247  28.4106 327.3433 7209820 190.3323 137.2956  2.43501412   424
2025-313A               
1 67248U 25313A   26015.48151032  .00001093  00000+0  11377-3 0  9993
2 67248  97.5631  91.6259 0280564 107.2100 256.0019 14.66795014  2635
2025-313B               
1 67249U 25313B   26015.47314397  .00002615  00000+0  20273-3 0  9994
2 67249  97.5323  91.7063 0297780 111.4390 251.8858 14.73196201  2640
2025-313C               
1 67250U 25313C   26015.47306454  .00009992  00000+0  93476-3 0  9991
2 67250  97.6365  92.2510 0162999 121.4836 240.2424 14.84681536  2666
2025-313D               
1 67251U 25313D   26015.48853631  .00002221  00000+0  19650-3 0  9997
2 67251  97.5876  92.2542 0152377 114.0056 247.7197 14.88743041  2673
ZORKIY-2M-VPE           
1 67252U 25313E   26015.49977464  .00005655  00000+0  25293-3 0  9994
2 67252  97.4118  92.6914 0011162 155.3178 204.8594 15.21647530  2734
AIST-2T 1               
1 67253U 25313F   26015.46006197  .00038430  00000+0  38884-3 0  9995
2 67253  97.1038  92.7935 0010489 173.7411 186.3982 15.65133806  2786
